DLR-TUBSAT              
1 25757U 99029B   26142.25285280  .00000038  00000+0  21210-4 0  9992
2 25757  98.6693 136.9048 0015340  70.7779 289.5074 14.52418866429487
TERRA                   
1 25994U 99068A   26142.26860568  .00000261  00000+0  62147-4 0  9999
2 25994  97.9473 192.8402 0001387 349.2778  75.3160 14.61079334405824
MAROC-TUBSAT            
1 27004U 01056D   26142.25235461 -.00000032  00000+0  16737-4 0  9991
2 27004  99.8072 318.6242 0019463 207.3558 338.0242 13.70261239222630
AQUA                    
1 27424U 02022A   26142.26611627  .00000536  00000+0  11639-3 0  9997
2 27424  98.4263 111.0345 0001982  68.0282  53.0020 14.62111902279481
SHIYAN-1 (SY-1)         
1 28220U 04012A   26142.21153617  .00010518  00000+0  33233-3 0  9993
2 28220  97.8688 218.6076 0007135 111.5909 248.6092 15.32999294207119
AURA                    
1 28376U 04026A   26142.24048398  .00000530  00000+0  11711-3 0  9992
2 28376  98.3404  98.4825 0001586  73.0706 287.0668 14.61283176162426
IRS-P5 (CARTOSAT-1)     
1 28649U 05017A   26142.30797999  .00000802  00000+0  86522-4 0  9996
2 28649  97.5323 166.5463 0002440 113.0074 247.1403 14.90971317139968
SINAH 1                 
1 28893U 05043D   26142.29011911  .00000195  00000+0  46532-4 0  9999
2 28893  98.2825 276.4650 0014362   2.8205 357.3075 14.64137260 96738
RESURS-DK 1             
1 29228U 06021A   26142.18792186  .00001353  00000+0  82401-4 0  9999
2 29228  69.9322  46.8500 0005111 323.6650  36.4169 15.13089318 98647
ARIRANG-2 (KOMPSAT-2)   
1 29268U 06031A   26142.34398356 -.00000065  00000+0 -38413-5 0  9999
2 29268  97.8308 328.0411 0015015 150.3602 331.3286 14.64639892 57697
LAPAN-TUBSAT            
1 29709U 07001A   26142.26162455 -.00000175  00000+0 -13431-4 0  9991
2 29709  98.1345 140.9030 0010751 271.5484  88.4499 14.85918093 47305
HAIYANG-1B              
1 31113U 07010A   26142.20436547  .00000057  00000+0  37716-4 0  9992
2 31113  98.3486 125.0592 0012223 279.8123  80.1680 14.31019652996914
COSMO-SKYMED 1          
1 31598U 07023A   26142.26790902  .00001872  00000+0  16811-3 0  9995
2 31598  97.8856 333.9080 0001417  98.0597 262.0786 14.96957852 25912
TERRASAR-X              
1 31698U 07026A   26140.46118088  .00000196  00000+0  12516-4 0  9995
2 31698  97.4460 148.5621 0001865  92.2234 267.9214 15.19150954 49013
WORLDVIEW-1 (WV-1)      
1 32060U 07041A   26142.22971959  .00004673  00000+0  19244-3 0  9994
2 32060  97.3925 262.3466 0003850 127.8703 232.2884 15.24593845 38928
YAOGAN-3                
1 32289U 07055A   26142.28509757  .00001353  00000+0  14373-3 0  9991
2 32289  97.8163 172.4190 0001680  96.5754 263.5655 14.90664957  2011
