[{"OBJECT_NAME":"DLR-TUBSAT","OBJECT_ID":"1999-029B","EPOCH":"2026-05-22T06:04:06.481920","MEAN_MOTION":14.52418866,"ECCENTRICITY":0.00153406,"INCLINATION":98.6693,"RA_OF_ASC_NODE":136.9048,"ARG_OF_PERICENTER":70.7779,"MEAN_ANOMALY":289.5074,"EPHEMERIS_TYPE":0,"CLASSIFICATION_TYPE":"U","NORAD_CAT_ID":25757,"ELEMENT_SET_NO":999,"REV_AT_EPOCH":42948,"BSTAR":2.1209578e-05,"MEAN_MOTION_DOT":3.8e-07,"MEAN_MOTION_DDOT":0},{"OBJECT_NAME":"TERRA","OBJECT_ID":"1999-068A","EPOCH":"2026-05-22T06:26:47.530752","MEAN_MOTION":14.61079334,"ECCENTRICITY":0.00013879,"INCLINATION":97.9473,"RA_OF_ASC_NODE":192.8402,"ARG_OF_PERICENTER":349.2778,"MEAN_ANOMALY":75.316,"EPHEMERIS_TYPE":0,"CLASSIFICATION_TYPE":"U","NORAD_CAT_ID":25994,"ELEMENT_SET_NO":999,"REV_AT_EPOCH":40582,"BSTAR":6.2146852e-05,"MEAN_MOTION_DOT":2.61e-06,"MEAN_MOTION_DDOT":0},{"OBJECT_NAME":"MAROC-TUBSAT","OBJECT_ID":"2001-056D","EPOCH":"2026-05-22T06:03:23.438304","MEAN_MOTION":13.70261239,"ECCENTRICITY":0.00194634,"INCLINATION":99.8072,"RA_OF_ASC_NODE":318.6242,"ARG_OF_PERICENTER":207.3558,"MEAN_ANOMALY":338.0242,"EPHEMERIS_TYPE":0,"CLASSIFICATION_TYPE":"U","NORAD_CAT_ID":27004,"ELEMENT_SET_NO":999,"REV_AT_EPOCH":22263,"BSTAR":1.6736942e-05,"MEAN_MOTION_DOT":-3.2e-07,"MEAN_MOTION_DDOT":0},{"OBJECT_NAME":"AQUA","OBJECT_ID":"2002-022A","EPOCH":"2026-05-22T06:23:12.445728","MEAN_MOTION":14.62111902,"ECCENTRICITY":0.00019824,"INCLINATION":98.4263,"RA_OF_ASC_NODE":111.0345,"ARG_OF_PERICENTER":68.0282,"MEAN_ANOMALY":53.002,"EPHEMERIS_TYPE":0,"CLASSIFICATION_TYPE":"U","NORAD_CAT_ID":27424,"ELEMENT_SET_NO":999,"REV_AT_EPOCH":27948,"BSTAR":0.00011639432,"MEAN_MOTION_DOT":5.36e-06,"MEAN_MOTION_DDOT":0},{"OBJECT_NAME":"SHIYAN-1 (SY-1)","OBJECT_ID":"2004-012A","EPOCH":"2026-05-22T05:04:36.725088","MEAN_MOTION":15.32999294,"ECCENTRICITY":0.00071353,"INCLINATION":97.8688,"RA_OF_ASC_NODE":218.6076,"ARG_OF_PERICENTER":111.5909,"MEAN_ANOMALY":248.6092,"EPHEMERIS_TYPE":0,"CLASSIFICATION_TYPE":"U","NORAD_CAT_ID":28220,"ELEMENT_SET_NO":999,"REV_AT_EPOCH":20711,"BSTAR":0.0003323257,"MEAN_MOTION_DOT":0.00010518,"MEAN_MOTION_DDOT":0},{"OBJECT_NAME":"AURA","OBJECT_ID":"2004-026A","EPOCH":"2026-05-22T05:46:17.815872","MEAN_MOTION":14.61283176,"ECCENTRICITY":0.00015869,"INCLINATION":98.3404,"RA_OF_ASC_NODE":98.4825,"ARG_OF_PERICENTER":73.0706,"MEAN_ANOMALY":287.0668,"EPHEMERIS_TYPE":0,"CLASSIFICATION_TYPE":"U","NORAD_CAT_ID":28376,"ELEMENT_SET_NO":999,"REV_AT_EPOCH":16242,"BSTAR":0.00011711484,"MEAN_MOTION_DOT":5.3e-06,"MEAN_MOTION_DDOT":0},{"OBJECT_NAME":"IRS-P5 (CARTOSAT-1)","OBJECT_ID":"2005-017A","EPOCH":"2026-05-22T07:23:29.471136","MEAN_MOTION":14.90971317,"ECCENTRICITY":0.00024409,"INCLINATION":97.5323,"RA_OF_ASC_NODE":166.5463,"ARG_OF_PERICENTER":113.0074,"MEAN_ANOMALY":247.1403,"EPHEMERIS_TYPE":0,"CLASSIFICATION_TYPE":"U","NORAD_CAT_ID":28649,"ELEMENT_SET_NO":999,"REV_AT_EPOCH":13996,"BSTAR":8.6521683e-05,"MEAN_MOTION_DOT":8.02e-06,"MEAN_MOTION_DDOT":0},{"OBJECT_NAME":"SINAH 1","OBJECT_ID":"2005-043D","EPOCH":"2026-05-22T06:57:46.291104","MEAN_MOTION":14.6413726,"ECCENTRICITY":0.00143625,"INCLINATION":98.2825,"RA_OF_ASC_NODE":276.465,"ARG_OF_PERICENTER":2.8205,"MEAN_ANOMALY":357.3075,"EPHEMERIS_TYPE":0,"CLASSIFICATION_TYPE":"U","NORAD_CAT_ID":28893,"ELEMENT_SET_NO":999,"REV_AT_EPOCH":9673,"BSTAR":4.6531673e-05,"MEAN_MOTION_DOT":1.95e-06,"MEAN_MOTION_DDOT":0},{"OBJECT_NAME":"RESURS-DK 1","OBJECT_ID":"2006-021A","EPOCH":"2026-05-22T04:30:36.448704","MEAN_MOTION":15.13089318,"ECCENTRICITY":0.00051111,"INCLINATION":69.9322,"RA_OF_ASC_NODE":46.85,"ARG_OF_PERICENTER":323.665,"MEAN_ANOMALY":36.4169,"EPHEMERIS_TYPE":0,"CLASSIFICATION_TYPE":"U","NORAD_CAT_ID":29228,"ELEMENT_SET_NO":999,"REV_AT_EPOCH":9864,"BSTAR":8.2401475e-05,"MEAN_MOTION_DOT":1.353e-05,"MEAN_MOTION_DDOT":0},{"OBJECT_NAME":"ARIRANG-2 (KOMPSAT-2)","OBJECT_ID":"2006-031A","EPOCH":"2026-05-22T08:15:20.179584","MEAN_MOTION":14.64639892,"ECCENTRICITY":0.00150151,"INCLINATION":97.8308,"RA_OF_ASC_NODE":328.0411,"ARG_OF_PERICENTER":150.3602,"MEAN_ANOMALY":331.3286,"EPHEMERIS_TYPE":0,"CLASSIFICATION_TYPE":"U","NORAD_CAT_ID":29268,"ELEMENT_SET_NO":999,"REV_AT_EPOCH":5769,"BSTAR":-3.841258e-06,"MEAN_MOTION_DOT":-6.5e-07,"MEAN_MOTION_DDOT":0},{"OBJECT_NAME":"LAPAN-TUBSAT","OBJECT_ID":"2007-001A","EPOCH":"2026-05-22T06:16:44.361120","MEAN_MOTION":14.85918093,"ECCENTRICITY":0.00107513,"INCLINATION":98.1345,"RA_OF_ASC_NODE":140.903,"ARG_OF_PERICENTER":271.5484,"MEAN_ANOMALY":88.4499,"EPHEMERIS_TYPE":0,"CLASSIFICATION_TYPE":"U","NORAD_CAT_ID":29709,"ELEMENT_SET_NO":999,"REV_AT_EPOCH":4730,"BSTAR":-1.3431152e-05,"MEAN_MOTION_DOT":-1.75e-06,"MEAN_MOTION_DDOT":0},{"OBJECT_NAME":"HAIYANG-1B","OBJECT_ID":"2007-010A","EPOCH":"2026-05-22T04:54:17.176608","MEAN_MOTION":14.31019652,"ECCENTRICITY":0.0012223,"INCLINATION":98.3486,"RA_OF_ASC_NODE":125.0592,"ARG_OF_PERICENTER":279.8123,"MEAN_ANOMALY":80.168,"EPHEMERIS_TYPE":0,"CLASSIFICATION_TYPE":"U","NORAD_CAT_ID":31113,"ELEMENT_SET_NO":999,"REV_AT_EPOCH":99691,"BSTAR":3.7716427e-05,"MEAN_MOTION_DOT":5.7e-07,"MEAN_MOTION_DDOT":0},{"OBJECT_NAME":"COSMO-SKYMED 1","OBJECT_ID":"2007-023A","EPOCH":"2026-05-22T06:25:47.339328","MEAN_MOTION":14.96957852,"ECCENTRICITY":0.00014171,"INCLINATION":97.8856,"RA_OF_ASC_NODE":333.908,"ARG_OF_PERICENTER":98.0597,"MEAN_ANOMALY":262.0786,"EPHEMERIS_TYPE":0,"CLASSIFICATION_TYPE":"U","NORAD_CAT_ID":31598,"ELEMENT_SET_NO":999,"REV_AT_EPOCH":2591,"BSTAR":0.00016811267,"MEAN_MOTION_DOT":1.872e-05,"MEAN_MOTION_DDOT":0},{"OBJECT_NAME":"TERRASAR-X","OBJECT_ID":"2007-026A","EPOCH":"2026-05-20T11:04:06.028032","MEAN_MOTION":15.19150954,"ECCENTRICITY":0.00018653,"INCLINATION":97.446,"RA_OF_ASC_NODE":148.5621,"ARG_OF_PERICENTER":92.2234,"MEAN_ANOMALY":267.9214,"EPHEMERIS_TYPE":0,"CLASSIFICATION_TYPE":"U","NORAD_CAT_ID":31698,"ELEMENT_SET_NO":999,"REV_AT_EPOCH":4901,"BSTAR":1.2516191e-05,"MEAN_MOTION_DOT":1.96e-06,"MEAN_MOTION_DDOT":0},{"OBJECT_NAME":"WORLDVIEW-1 (WV-1)","OBJECT_ID":"2007-041A","EPOCH":"2026-05-22T05:30:47.772576","MEAN_MOTION":15.24593845,"ECCENTRICITY":0.00038506,"INCLINATION":97.3925,"RA_OF_ASC_NODE":262.3466,"ARG_OF_PERICENTER":127.8703,"MEAN_ANOMALY":232.2884,"EPHEMERIS_TYPE":0,"CLASSIFICATION_TYPE":"U","NORAD_CAT_ID":32060,"ELEMENT_SET_NO":999,"REV_AT_EPOCH":3892,"BSTAR":0.00019244052,"MEAN_MOTION_DOT":4.673e-05,"MEAN_MOTION_DDOT":0},{"OBJECT_NAME":"YAOGAN-3","OBJECT_ID":"2007-055A","EPOCH":"2026-05-22T06:50:32.430048","MEAN_MOTION":14.90664957,"ECCENTRICITY":0.00016801,"INCLINATION":97.8163,"RA_OF_ASC_NODE":172.419,"ARG_OF_PERICENTER":96.5754,"MEAN_ANOMALY":263.5655,"EPHEMERIS_TYPE":0,"CLASSIFICATION_TYPE":"U","NORAD_CAT_ID":32289,"ELEMENT_SET_NO":999,"REV_AT_EPOCH":201,"BSTAR":0.00014373367,"MEAN_MOTION_DOT":1.353e-05,"MEAN_MOTION_DDOT":0}]